STARLINK-35793          
1 67179U 25303S   26015.16670139  .00063982  00000+0  15277-2 0  9991
2 67179  42.9995 256.3559 0001095 259.6147 352.2209 15.40668281  5542
STARLINK-35876          
1 67180U 25303T   26015.16670139  .00080570  00000+0  19200-2 0  9995
2 67180  42.9999 256.2966 0002645 281.2379 355.4962 15.40630838  5592
STARLINK-35766          
1 67181U 25303U   26015.16670139  .00076382  00000+0  18206-2 0  9997
2 67181  42.9993 256.2659 0001462 282.8994   6.3504 15.40649033  5548
STARLINK-35782          
1 67182U 25303V   26015.16670139 -.02364757  00000+0 -59836-1 0  9991
2 67182  42.9987 256.2392 0000875 268.1324  32.4458 15.42517579  5546
STARLINK-35719          
1 67183U 25303W   26015.16670139 -.01965063  00000+0 -45324-1 0  9995
2 67183  42.9991 256.1955 0001513 257.6298  60.9622 15.45137490  5541
STARLINK-35910          
1 67184U 25303X   26015.16670139 -.02368904  00000+0 -56886-1 0  9993
2 67184  42.9990 256.2170 0002655 270.4442  39.8531 15.44040509  5540
STARLINK-35859          
1 67185U 25303Y   26015.16670139 -.02033579  00000+0 -42298-1 0  9993
2 67185  42.9981 256.1644 0001598 260.4324  70.4059 15.48213422  5545
STARLINK-35857          
1 67186U 25303Z   26015.16670139 -.01880235  00000+0 -41155-1 0  9993
2 67186  42.9988 256.1783 0001291 253.8925  71.3713 15.46501863  5544
STARLINK-35880          
1 67187U 25303AA  26015.16670139 -.01995261  00000+0 -39426-1 0  9998
2 67187  42.9990 256.1559 0001742 283.2250  50.8520 15.49592311  5547
STARLINK-35675          
1 67188U 25303AB  26015.16670139 -.00079748  00000+0 -13656-2 0  9999
2 67188  42.9982 256.1482 0001443 279.7398  57.4832 15.50615482  5541
STARLINK-35889          
1 67189U 25303AC  26015.16670139 -.01831874  00000+0 -34902-1 0  9993
2 67189  42.9984 256.1515 0001708 276.4617  59.3791 15.50875747  5540
STARLINK-35888          
1 67190U 25303AD  26015.16670139  .00078884  00000+0  13390-2 0  9995
2 67190  42.9981 256.1399 0001651 282.2093  57.8046 15.50535439  5546
