CCSDS_OMM_VERS = 2.0
CREATION_DATE  = 
ORIGINATOR     = 

OBJECT_NAME    = STARLINK-35793
OBJECT_ID      = 2025-303S
CENTER_NAME    = EARTH
REF_FRAME      = TEME
TIME_SYSTEM    = UTC
MEAN_ELEMENT_THEORY = SGP/SGP4

EPOCH          = 2026-01-15T04:00:03.000096
MEAN_MOTION    = 15.40668281
ECCENTRICITY   = .0001095
INCLINATION    = 42.9995
RA_OF_ASC_NODE = 256.3559
ARG_OF_PERICENTER = 259.6147
MEAN_ANOMALY   = 352.2209

EPHEMERIS_TYPE = 0
CLASSIFICATION_TYPE = U
NORAD_CAT_ID   = 67179
ELEMENT_SET_NO = 999
REV_AT_EPOCH   = 554
BSTAR          = .15277E-2
MEAN_MOTION_DOT = .63982E-3
MEAN_MOTION_DDOT = 0

CCSDS_OMM_VERS = 2.0
CREATION_DATE  = 
ORIGINATOR     = 

OBJECT_NAME    = STARLINK-35876
OBJECT_ID      = 2025-303T
CENTER_NAME    = EARTH
REF_FRAME      = TEME
TIME_SYSTEM    = UTC
MEAN_ELEMENT_THEORY = SGP/SGP4

EPOCH          = 2026-01-15T04:00:03.000096
MEAN_MOTION    = 15.40630838
ECCENTRICITY   = .0002645
INCLINATION    = 42.9999
RA_OF_ASC_NODE = 256.2966
ARG_OF_PERICENTER = 281.2379
MEAN_ANOMALY   = 355.4962

EPHEMERIS_TYPE = 0
CLASSIFICATION_TYPE = U
NORAD_CAT_ID   = 67180
ELEMENT_SET_NO = 999
REV_AT_EPOCH   = 559
BSTAR          = .192E-2
MEAN_MOTION_DOT = .8057E-3
MEAN_MOTION_DDOT = 0

CCSDS_OMM_VERS = 2.0
CREATION_DATE  = 
ORIGINATOR     = 

OBJECT_NAME    = STARLINK-35766
OBJECT_ID      = 2025-303U
CENTER_NAME    = EARTH
REF_FRAME      = TEME
TIME_SYSTEM    = UTC
MEAN_ELEMENT_THEORY = SGP/SGP4

EPOCH          = 2026-01-15T04:00:03.000096
MEAN_MOTION    = 15.40649033
ECCENTRICITY   = .0001462
INCLINATION    = 42.9993
RA_OF_ASC_NODE = 256.2659
ARG_OF_PERICENTER = 282.8994
MEAN_ANOMALY   = 6.3504

EPHEMERIS_TYPE = 0
CLASSIFICATION_TYPE = U
NORAD_CAT_ID   = 67181
ELEMENT_SET_NO = 999
REV_AT_EPOCH   = 554
BSTAR          = .18206E-2
MEAN_MOTION_DOT = .76382E-3
MEAN_MOTION_DDOT = 0

CCSDS_OMM_VERS = 2.0
CREATION_DATE  = 
ORIGINATOR     = 

OBJECT_NAME    = STARLINK-35782
OBJECT_ID      = 2025-303V
CENTER_NAME    = EARTH
REF_FRAME      = TEME
TIME_SYSTEM    = UTC
MEAN_ELEMENT_THEORY = SGP/SGP4

EPOCH          = 2026-01-15T04:00:03.000096
MEAN_MOTION    = 15.42517579
ECCENTRICITY   = .0000875
INCLINATION    = 42.9987
RA_OF_ASC_NODE = 256.2392
ARG_OF_PERICENTER = 268.1324
MEAN_ANOMALY   = 32.4458

EPHEMERIS_TYPE = 0
CLASSIFICATION_TYPE = U
NORAD_CAT_ID   = 67182
ELEMENT_SET_NO = 999
REV_AT_EPOCH   = 554
BSTAR          = -.59836E-1
MEAN_MOTION_DOT = -.2364757E-1
MEAN_MOTION_DDOT = 0

CCSDS_OMM_VERS = 2.0
CREATION_DATE  = 
ORIGINATOR     = 

OBJECT_NAME    = STARLINK-35719
OBJECT_ID      = 2025-303W
CENTER_NAME    = EARTH
REF_FRAME      = TEME
TIME_SYSTEM    = UTC
MEAN_ELEMENT_THEORY = SGP/SGP4

EPOCH          = 2026-01-15T04:00:03.000096
MEAN_MOTION    = 15.45137490
ECCENTRICITY   = .0001513
INCLINATION    = 42.9991
RA_OF_ASC_NODE = 256.1955
ARG_OF_PERICENTER = 257.6298
MEAN_ANOMALY   = 60.9622

EPHEMERIS_TYPE = 0
CLASSIFICATION_TYPE = U
NORAD_CAT_ID   = 67183
ELEMENT_SET_NO = 999
REV_AT_EPOCH   = 554
BSTAR          = -.45324E-1
MEAN_MOTION_DOT = -.1965063E-1
MEAN_MOTION_DDOT = 0

CCSDS_OMM_VERS = 2.0
CREATION_DATE  = 
ORIGINATOR     = 

OBJECT_NAME    = STARLINK-35910
OBJECT_ID      = 2025-303X
CENTER_NAME    = EARTH
REF_FRAME      = TEME
TIME_SYSTEM    = UTC
MEAN_ELEMENT_THEORY = SGP/SGP4

EPOCH          = 2026-01-15T04:00:03.000096
MEAN_MOTION    = 15.44040509
ECCENTRICITY   = .0002655
INCLINATION    = 42.9990
RA_OF_ASC_NODE = 256.2170
ARG_OF_PERICENTER = 270.4442
MEAN_ANOMALY   = 39.8531

EPHEMERIS_TYPE = 0
CLASSIFICATION_TYPE = U
NORAD_CAT_ID   = 67184
ELEMENT_SET_NO = 999
REV_AT_EPOCH   = 554
BSTAR          = -.56886E-1
MEAN_MOTION_DOT = -.2368904E-1
MEAN_MOTION_DDOT = 0

CCSDS_OMM_VERS = 2.0
CREATION_DATE  = 
ORIGINATOR     = 

OBJECT_NAME    = STARLINK-35859
OBJECT_ID      = 2025-303Y
CENTER_NAME    = EARTH
REF_FRAME      = TEME
TIME_SYSTEM    = UTC
MEAN_ELEMENT_THEORY = SGP/SGP4

EPOCH          = 2026-01-15T04:00:03.000096
MEAN_MOTION    = 15.48213422
ECCENTRICITY   = .0001598
INCLINATION    = 42.9981
RA_OF_ASC_NODE = 256.1644
ARG_OF_PERICENTER = 260.4324
MEAN_ANOMALY   = 70.4059

EPHEMERIS_TYPE = 0
CLASSIFICATION_TYPE = U
NORAD_CAT_ID   = 67185
ELEMENT_SET_NO = 999
REV_AT_EPOCH   = 554
BSTAR          = -.42298E-1
MEAN_MOTION_DOT = -.2033579E-1
MEAN_MOTION_DDOT = 0

CCSDS_OMM_VERS = 2.0
CREATION_DATE  = 
ORIGINATOR     = 

OBJECT_NAME    = STARLINK-35857
OBJECT_ID      = 2025-303Z
CENTER_NAME    = EARTH
REF_FRAME      = TEME
TIME_SYSTEM    = UTC
MEAN_ELEMENT_THEORY = SGP/SGP4

EPOCH          = 2026-01-15T04:00:03.000096
MEAN_MOTION    = 15.46501863
ECCENTRICITY   = .0001291
INCLINATION    = 42.9988
RA_OF_ASC_NODE = 256.1783
ARG_OF_PERICENTER = 253.8925
MEAN_ANOMALY   = 71.3713

EPHEMERIS_TYPE = 0
CLASSIFICATION_TYPE = U
NORAD_CAT_ID   = 67186
ELEMENT_SET_NO = 999
REV_AT_EPOCH   = 554
BSTAR          = -.41155E-1
MEAN_MOTION_DOT = -.1880235E-1
MEAN_MOTION_DDOT = 0

CCSDS_OMM_VERS = 2.0
CREATION_DATE  = 
ORIGINATOR     = 

OBJECT_NAME    = STARLINK-35880
OBJECT_ID      = 2025-303AA
CENTER_NAME    = EARTH
REF_FRAME      = TEME
TIME_SYSTEM    = UTC
MEAN_ELEMENT_THEORY = SGP/SGP4

EPOCH          = 2026-01-15T04:00:03.000096
MEAN_MOTION    = 15.49592311
ECCENTRICITY   = .0001742
INCLINATION    = 42.9990
RA_OF_ASC_NODE = 256.1559
ARG_OF_PERICENTER = 283.2250
MEAN_ANOMALY   = 50.8520

EPHEMERIS_TYPE = 0
CLASSIFICATION_TYPE = U
NORAD_CAT_ID   = 67187
ELEMENT_SET_NO = 999
REV_AT_EPOCH   = 554
BSTAR          = -.39426E-1
MEAN_MOTION_DOT = -.1995261E-1
MEAN_MOTION_DDOT = 0

CCSDS_OMM_VERS = 2.0
CREATION_DATE  = 
ORIGINATOR     = 

OBJECT_NAME    = STARLINK-35675
OBJECT_ID      = 2025-303AB
CENTER_NAME    = EARTH
REF_FRAME      = TEME
TIME_SYSTEM    = UTC
MEAN_ELEMENT_THEORY = SGP/SGP4

EPOCH          = 2026-01-15T04:00:03.000096
MEAN_MOTION    = 15.50615482
ECCENTRICITY   = .0001443
INCLINATION    = 42.9982
RA_OF_ASC_NODE = 256.1482
ARG_OF_PERICENTER = 279.7398
MEAN_ANOMALY   = 57.4832

EPHEMERIS_TYPE = 0
CLASSIFICATION_TYPE = U
NORAD_CAT_ID   = 67188
ELEMENT_SET_NO = 999
REV_AT_EPOCH   = 554
BSTAR          = -.13656E-2
MEAN_MOTION_DOT = -.79748E-3
MEAN_MOTION_DDOT = 0

CCSDS_OMM_VERS = 2.0
CREATION_DATE  = 
ORIGINATOR     = 

OBJECT_NAME    = STARLINK-35889
OBJECT_ID      = 2025-303AC
CENTER_NAME    = EARTH
REF_FRAME      = TEME
TIME_SYSTEM    = UTC
MEAN_ELEMENT_THEORY = SGP/SGP4

EPOCH          = 2026-01-15T04:00:03.000096
MEAN_MOTION    = 15.50875747
ECCENTRICITY   = .0001708
INCLINATION    = 42.9984
RA_OF_ASC_NODE = 256.1515
ARG_OF_PERICENTER = 276.4617
MEAN_ANOMALY   = 59.3791

EPHEMERIS_TYPE = 0
CLASSIFICATION_TYPE = U
NORAD_CAT_ID   = 67189
ELEMENT_SET_NO = 999
REV_AT_EPOCH   = 554
BSTAR          = -.34902E-1
MEAN_MOTION_DOT = -.1831874E-1
MEAN_MOTION_DDOT = 0

CCSDS_OMM_VERS = 2.0
CREATION_DATE  = 
ORIGINATOR     = 

OBJECT_NAME    = STARLINK-35888
OBJECT_ID      = 2025-303AD
CENTER_NAME    = EARTH
REF_FRAME      = TEME
TIME_SYSTEM    = UTC
MEAN_ELEMENT_THEORY = SGP/SGP4

EPOCH          = 2026-01-15T04:00:03.000096
MEAN_MOTION    = 15.50535439
ECCENTRICITY   = .0001651
INCLINATION    = 42.9981
RA_OF_ASC_NODE = 256.1399
ARG_OF_PERICENTER = 282.2093
MEAN_ANOMALY   = 57.8046

EPHEMERIS_TYPE = 0
CLASSIFICATION_TYPE = U
NORAD_CAT_ID   = 67190
ELEMENT_SET_NO = 999
REV_AT_EPOCH   = 554
BSTAR          = .1339E-2
MEAN_MOTION_DOT = .78884E-3
MEAN_MOTION_DDOT = 0

